OBJECT_NAME,OBJECT_ID,EPOCH,MEAN_MOTION,ECCENTRICITY,INCLINATION,RA_OF_ASC_NODE,ARG_OF_PERICENTER,MEAN_ANOMALY,EPHEMERIS_TYPE,CLASSIFICATION_TYPE,NORAD_CAT_ID,ELEMENT_SET_NO,REV_AT_EPOCH,BSTAR,MEAN_MOTION_DOT,MEAN_MOTION_DDOT
ICEYE-X49,2024-247H,2026-06-09T09:03:41.835456,15.12923272,.00010311,44.9989,39.0821,270.9682,89.1077,0,U,62384,999,8099,.22548933E-3,.3785E-4,0
BANDWAGON-2 OBJECT J,2024-247J,2026-06-06T16:49:43.328352,15.50603202,.00086952,45.0000,311.1846,246.6506,113.3471,0,U,62385,999,8182,.94418658E-3,.5543E-3,0
TOMORROW-S4,2024-247K,2026-06-09T18:05:29.460480,15.29036276,.00035188,44.9811,333.7662,330.9131,29.1556,0,U,62386,999,8181,.24040183E-3,.6613E-4,0
BANDWAGON-2 OBJECT L,2024-247L,2026-06-09T01:48:12.905568,15.52570030,.0009384,44.9906,294.7407,272.3973,87.5845,0,U,62387,999,8222,.69353E-3,.43544E-3,0
GITAI-SC1,2024-247M,2026-06-09T05:40:14.490048,15.21304635,.0001544,45.0037,354.6323,254.5549,105.5161,0,U,62388,999,8152,.21573E-3,.4638E-4,0
ICEYE-X47,2024-247N,2026-06-09T08:31:32.204640,15.13194626,.00017777,44.9972,38.8248,225.3257,134.7476,0,U,62389,999,8099,.26063819E-3,.445E-4,0
LASARSAT,2024-247Q,2026-06-09T19:18:52.108128,15.45910909,.00083909,44.9750,303.6854,290.3514,69.6474,0,U,62391,999,8217,.71315883E-3,.35312E-3,0
TOMORROW-S3,2024-247R,2026-06-09T04:46:51.040704,15.28979485,.0003437,45.0030,336.8066,268.2113,91.8377,0,U,62392,999,8173,.19972E-3,.5431E-4,0
BANDWAGON-2 OBJECT S,2024-247S,2026-06-09T14:45:37.743552,15.98814876,.00194997,44.9554,263.0957,348.4210,11.6249,0,U,62393,999,8263,.16926506E-2,.853777E-2,.34337597E-3
CROCUBE,2024-247T,2026-06-09T17:55:35.782752,15.47729938,.00082118,44.9723,301.4632,293.9391,66.0639,0,U,62394,999,8219,.72510206E-3,.38274E-3,0
BANDWAGON-2 OBJECT U,2024-247U,2026-06-09T19:07:21.836928,15.47621114,.00078368,44.9948,297.8237,254.0791,105.9237,0,U,62395,999,8225,.68572505E-3,.36021E-3,0
BANDWAGON-2 OBJECT V,2024-247V,2026-06-09T20:07:44.057568,15.52125061,.00094179,44.9931,291.2697,273.1332,86.8483,0,U,62396,999,8233,.78659139E-3,.48681E-3,0
BANDWAGON-2 OBJECT Y,2024-247Y,2026-06-09T16:23:00.962592,15.48253699,.00077122,44.9970,297.8963,254.5933,105.4106,0,U,62399,999,8224,.60592133E-3,.32485E-3,0
XCUBE-1,2024-247Z,2026-06-08T18:28:02.031744,15.29477666,.00039009,44.9973,338.5354,187.8383,172.2440,0,U,62400,999,8167,.33537771E-3,.9479E-4,0
CTC-0,2024-247AA,2026-06-09T03:49:29.716608,15.39241189,.00079916,44.9734,314.7697,243.2746,116.7324,0,U,62401,999,8198,.46149008E-3,.18065E-3,0
DJIBOUTI-1B,2024-247AB,2026-06-09T09:59:01.200768,15.55156497,.00090084,44.9712,288.1134,285.0721,74.9175,0,U,62402,999,8232,.71554347E-3,.49446E-3,0
BANDWAGON-2 OBJECT AC,2024-247AC,2026-06-09T17:28:16.905216,15.38682081,.00056732,45.0041,317.4496,250.4693,109.5582,0,U,62403,999,8201,.51089874E-3,.19661E-3,0
BANDWAGON-2 OBJECT AD,2024-247AD,2026-06-09T16:01:00.167520,15.51281503,.00091769,44.9945,293.4331,268.2439,91.7402,0,U,62404,999,8229,.66858498E-3,.4003E-3,0
BANDWAGON-2 OBJECT AE,2024-247AE,2026-06-08T15:40:42.171168,15.60676047,.0010851,44.9750,286.0190,292.3977,67.5768,0,U,62405,999,8169,.8562E-3,.73286E-3,0
STRIX-2,2024-248A,2026-06-09T23:27:15.015168,15.08818348,.00159467,97.6277,116.6600,6.9502,353.1944,0,U,62406,999,8050,.35957534E-3,.5609E-4,0
STARLINK-11444 [DTC],2024-249A,2026-06-08T18:46:25.734720,15.70930948,.00031116,42.9985,338.8942,256.3462,103.7059,0,U,62409,999,8380,.15882952E-2,.209388E-2,0
STARLINK-11493 [DTC],2024-249B,2026-06-08T18:54:04.112640,15.70910691,.00015913,42.9996,338.9351,249.7268,110.3429,0,U,62410,999,8380,.14463724E-2,.190008E-2,0
STARLINK-11453 [DTC],2024-249C,2026-06-09T18:33:09.421344,15.70943080,.00014621,42.9987,332.5470,252.5520,107.5188,0,U,62411,999,8396,.16430016E-2,.216901E-2,0
STARLINK-11441 [DTC],2024-249E,2026-06-09T18:10:13.008864,15.70857688,.00019497,42.9993,332.4169,259.1036,100.9612,0,U,62413,999,8396,.271257E-3,.34529E-3,0
STARLINK-11445 [DTC],2024-249F,2026-06-09T18:25:30.573408,15.70850445,.00022256,43.0004,332.5032,277.4267,82.6348,0,U,62414,999,8396,.14700286E-2,.192703E-2,0
STARLINK-11355 [DTC],2024-249G,2026-06-09T18:17:51.638208,15.70872157,.00014234,42.9990,332.4508,272.2897,87.7807,0,U,62415,999,8396,.13396098E-2,.175352E-2,0
STARLINK-11446 [DTC],2024-249H,2026-06-09T17:54:55.671552,15.70997794,.00021511,42.9995,332.3348,115.6680,244.4410,0,U,62416,999,8396,.13129628E-2,.172715E-2,0
STARLINK-11428 [DTC],2024-249J,2026-06-09T12:49:51.295008,15.70803881,.00017474,42.9993,334.2145,277.5327,82.5343,0,U,62417,999,8392,.12067358E-2,.157115E-2,0
STARLINK-11447 [DTC],2024-249K,2026-06-09T18:02:34.368288,15.70902927,.00031061,42.9992,332.3736,263.1175,96.9340,0,U,62418,999,8396,.11894336E-2,.15549E-2,0
STARLINK-11434 [DTC],2024-249M,2026-06-08T18:38:46.755456,15.70848713,.00023897,43.0014,338.8468,255.5007,104.5596,0,U,62420,999,8380,.15044195E-2,.19732E-2,0
