ICEYE-X49               
1 62384U 24247H   26160.37756754  .00003785  00000+0  22549-3 0  9998
2 62384  44.9989  39.0821 0001031 270.9682  89.1077 15.12923272 80992
BANDWAGON-2 OBJECT J    
1 62385U 24247J   26157.70119593  .00055430  00000+0  94419-3 0  9995
2 62385  45.0000 311.1846 0008695 246.6506 113.3471 15.50603202 81829
TOMORROW-S4             
1 62386U 24247K   26160.75381320  .00006613  00000+0  24040-3 0  9996
2 62386  44.9811 333.7662 0003518 330.9131  29.1556 15.29036276 81818
BANDWAGON-2 OBJECT L    
1 62387U 24247L   26160.07514937  .00043544  00000+0  69353-3 0  9994
2 62387  44.9906 294.7407 0009384 272.3973  87.5845 15.52570030 82229
GITAI-SC1               
1 62388U 24247M   26160.23627882  .00004638  00000+0  21573-3 0  9990
2 62388  45.0037 354.6323 0001544 254.5549 105.5161 15.21304635 81527
ICEYE-X47               
1 62389U 24247N   26160.35523385  .00004450  00000+0  26064-3 0  9999
2 62389  44.9972  38.8248 0001777 225.3257 134.7476 15.13194626 80992
LASARSAT                
1 62391U 24247Q   26160.80476977  .00035312  00000+0  71316-3 0  9997
2 62391  44.9750 303.6854 0008390 290.3514  69.6474 15.45910909 82172
TOMORROW-S3             
1 62392U 24247R   26160.19920186  .00005431  00000+0  19972-3 0  9995
2 62392  45.0030 336.8066 0003437 268.2113  91.8377 15.28979485 81730
BANDWAGON-2 OBJECT S    
1 62393U 24247S   26160.61502018  .00853777  34338-3  16927-2 0  9998
2 62393  44.9554 263.0957 0019499 348.4210  11.6249 15.98814876 82631
CROCUBE                 
1 62394U 24247T   26160.74694193  .00038274  00000+0  72510-3 0  9992
2 62394  44.9723 301.4632 0008211 293.9391  66.0639 15.47729938 82197
BANDWAGON-2 OBJECT U    
1 62395U 24247U   26160.79678052  .00036021  00000+0  68573-3 0  9996
2 62395  44.9948 297.8237 0007836 254.0791 105.9237 15.47621114 82251
BANDWAGON-2 OBJECT V    
1 62396U 24247V   26160.83870437  .00048681  00000+0  78659-3 0  9994
2 62396  44.9931 291.2697 0009417 273.1332  86.8483 15.52125061 82337
BANDWAGON-2 OBJECT Y    
1 62399U 24247Y   26160.68265003  .00032485  00000+0  60592-3 0  9999
2 62399  44.9970 297.8963 0007712 254.5933 105.4106 15.48253699 82241
XCUBE-1                 
1 62400U 24247Z   26159.76946796  .00009479  00000+0  33538-3 0  9991
2 62400  44.9973 338.5354 0003900 187.8383 172.2440 15.29477666 81676
CTC-0                   
1 62401U 24247AA  26160.15937172  .00018065  00000+0  46149-3 0  9998
2 62401  44.9734 314.7697 0007991 243.2746 116.7324 15.39241189 81980
DJIBOUTI-1B             
1 62402U 24247AB  26160.41598612  .00049446  00000+0  71554-3 0  9995
2 62402  44.9712 288.1134 0009008 285.0721  74.9175 15.55156497 82328
BANDWAGON-2 OBJECT AC   
1 62403U 24247AC  26160.72797344  .00019661  00000+0  51090-3 0  9992
2 62403  45.0041 317.4496 0005673 250.4693 109.5582 15.38682081 82018
BANDWAGON-2 OBJECT AD   
1 62404U 24247AD  26160.66736305  .00040030  00000+0  66858-3 0  9998
2 62404  44.9945 293.4331 0009176 268.2439  91.7402 15.51281503 82290
BANDWAGON-2 OBJECT AE   
1 62405U 24247AE  26159.65326587  .00073286  00000+0  85620-3 0  9990
2 62405  44.9750 286.0190 0010851 292.3977  67.5768 15.60676047 81693
STRIX-2                 
1 62406U 24248A   26160.97725712  .00005609  00000+0  35958-3 0  9995
2 62406  97.6277 116.6600 0015946   6.9502 353.1944 15.08818348 80503
STARLINK-11444 [DTC]    
1 62409U 24249A   26159.78224230  .00209388  00000+0  15883-2 0  9999
2 62409  42.9985 338.8942 0003111 256.3462 103.7059 15.70930948 83801
STARLINK-11493 [DTC]    
1 62410U 24249B   26159.78754760  .00190008  00000+0  14464-2 0  9999
2 62410  42.9996 338.9351 0001591 249.7268 110.3429 15.70910691 83808
STARLINK-11453 [DTC]    
1 62411U 24249C   26160.77302571  .00216901  00000+0  16430-2 0  9996
2 62411  42.9987 332.5470 0001462 252.5520 107.5188 15.70943080 83966
STARLINK-11441 [DTC]    
1 62413U 24249E   26160.75709501  .00034529  00000+0  27126-3 0  9999
2 62413  42.9993 332.4169 0001949 259.1036 100.9612 15.70857688 83961
STARLINK-11445 [DTC]    
1 62414U 24249F   26160.76771497  .00192703  00000+0  14700-2 0  9996
2 62414  43.0004 332.5032 0002225 277.4267  82.6348 15.70850445 83960
STARLINK-11355 [DTC]    
1 62415U 24249G   26160.76240322  .00175352  00000+0  13396-2 0  9996
2 62415  42.9990 332.4508 0001423 272.2897  87.7807 15.70872157 83961
STARLINK-11446 [DTC]    
1 62416U 24249H   26160.74647768  .00172715  00000+0  13130-2 0  9996
2 62416  42.9995 332.3348 0002151 115.6680 244.4410 15.70997794 83964
STARLINK-11428 [DTC]    
1 62417U 24249J   26160.53462147  .00157115  00000+0  12067-2 0  9995
2 62417  42.9993 334.2145 0001747 277.5327  82.5343 15.70803881 83920
STARLINK-11447 [DTC]    
1 62418U 24249K   26160.75178667  .00155490  00000+0  11894-2 0  9992
2 62418  42.9992 332.3736 0003106 263.1175  96.9340 15.70902927 83969
STARLINK-11434 [DTC]    
1 62420U 24249M   26159.77693004  .00197320  00000+0  15044-2 0  9991
2 62420  43.0014 338.8468 0002389 255.5007 104.5596 15.70848713 83807
